{"type": "FeatureCollection", "features": [ {"type": "Feature", "properties": {"norad_id": 44542, "name": "BEIDOU-3 M24 (C46)", "group": "beidou", "lat": 22.348568908717393, "lon": -8.196408941081149, "alt_km": 21541.85275732362, "timestamp": "2025-12-15T07:02:37.881782+00:00", "meta": {"OBJECT_NAME": "BEIDOU-3 M24 (C46)", "OBJECT_ID": "2019-061A", "EPOCH": "2025-12-11T20:16:59.930112", "MEAN_MOTION": 1.86229199, "ECCENTRICITY": 0.00095416, "INCLINATION": 54.4002, "RA_OF_ASC_NODE": 189.0463, "ARG_OF_PERICENTER": 24.13, "MEAN_ANOMALY": 335.9744, "EPHEMERIS_TYPE": 0, "CLASSIFICATION_TYPE": "U", "NORAD_CAT_ID": 44542, "ELEMENT_SET_NO": 999, "REV_AT_EPOCH": 4230, "BSTAR": 0, "MEAN_MOTION_DOT": 7.3e-07, "MEAN_MOTION_DDOT": 0}, "tle": {"line1": "1 44542U 19061A   25345.84513808  .00000073  00000+0  00000+0 0  9990", "line2": "2 44542  54.4002 189.0463 0009541  24.1300 335.9744  1.86229199 42307"}}, "geometry": {"type": "Point", "coordinates": [-8.196408941081149, 22.348568908717393]}}, {"type": "Feature", "properties": {"norad_id": 44543, "name": "BEIDOU-3 M23 (C45)", "group": "beidou", "lat": 47.34138375523663, "lon": -120.04649470373377, "alt_km": 21509.838450137715, "timestamp": "2025-12-15T07:02:37.881793+00:00", "meta": {"OBJECT_NAME": "BEIDOU-3 M23 (C45)", "OBJECT_ID": "2019-061B", "EPOCH": "2025-12-12T05:53:39.748416", "MEAN_MOTION": 1.86227487, "ECCENTRICITY": 0.00061471, "INCLINATION": 54.3988, "RA_OF_ASC_NODE": 189.0008, "ARG_OF_PERICENTER": 23.325, "MEAN_ANOMALY": 158.0349, "EPHEMERIS_TYPE": 0, "CLASSIFICATION_TYPE": "U", "NORAD_CAT_ID": 44543, "ELEMENT_SET_NO": 999, "REV_AT_EPOCH": 4231, "BSTAR": 0, "MEAN_MOTION_DOT": 7.9e-07, "MEAN_MOTION_DDOT": 0}, "tle": {"line1": "1 44543U 19061B   25346.24559894  .00000079  00000+0  00000+0 0  9997", "line2": "2 44543  54.3988 189.0008 0006147  23.3250 158.0349  1.86227487 42313"}}, "geometry": {"type": "Point", "coordinates": [-120.04649470373377, 47.34138375523663]}}, {"type": "Feature", "properties": {"norad_id": 44709, "name": "BEIDOU-3 IGSO-3 (C40)", "group": "beidou", "lat": 16.21331326811778, "lon": -65.46527340656638, "alt_km": 35979.405044235406, "timestamp": "2025-12-15T07:02:37.881805+00:00", "meta": {"OBJECT_NAME": "BEIDOU-3 IGSO-3 (C40)", "OBJECT_ID": "2019-073A", "EPOCH": "2025-11-20T07:11:22.740000", "MEAN_MOTION": 1.00250097, "ECCENTRICITY": 0.0044538, "INCLINATION": 55.163, "RA_OF_ASC_NODE": 283.159, "ARG_OF_PERICENTER": 191.5856, "MEAN_ANOMALY": 168.2409, "EPHEMERIS_TYPE": 0, "CLASSIFICATION_TYPE": "U", "NORAD_CAT_ID": 44709, "ELEMENT_SET_NO": 999, "REV_AT_EPOCH": 2236, "BSTAR": 0, "MEAN_MOTION_DOT": -2.06e-06, "MEAN_MOTION_DDOT": 0}, "tle": {"line1": "1 44709U 19073A   25324.29956875 -.00000206  00000+0  00000+0 0  9998", "line2": "2 44709  55.1630 283.1590 0044538 191.5856 168.2409  1.00250097 22360"}}, "geometry": {"type": "Point", "coordinates": [-65.46527340656638, 16.21331326811778]}}, {"type": "Feature", "properties": {"norad_id": 44793, "name": "BEIDOU-3 M22 (C44)", "group": "beidou", "lat": -52.72582947963954, "lon": -161.76128058104564, "alt_km": 21542.63134136621, "timestamp": "2025-12-15T07:02:37.881820+00:00", "meta": {"OBJECT_NAME": "BEIDOU-3 M22 (C44)", "OBJECT_ID": "2019-078A", "EPOCH": "2025-12-13T07:06:19.529568", "MEAN_MOTION": 1.86231771, "ECCENTRICITY": 0.00057339, "INCLINATION": 54.1075, "RA_OF_ASC_NODE": 306.366, "ARG_OF_PERICENTER": 23.2965, "MEAN_ANOMALY": 336.7192, "EPHEMERIS_TYPE": 0, "CLASSIFICATION_TYPE": "U", "NORAD_CAT_ID": 44793, "ELEMENT_SET_NO": 999, "REV_AT_EPOCH": 4118, "BSTAR": 0, "MEAN_MOTION_DOT": -9.7e-07, "MEAN_MOTION_DDOT": 0}, "tle": {"line1": "1 44793U 19078A   25347.29605937 -.00000097  00000+0  00000+0 0  9999", "line2": "2 44793  54.1075 306.3660 0005733  23.2965 336.7192  1.86231771 41181"}}, "geometry": {"type": "Point", "coordinates": [-161.76128058104564, -52.72582947963954]}}, {"type": "Feature", "properties": {"norad_id": 44794, "name": "BEIDOU-3 M21 (C43)", "group": "beidou", "lat": 10.55768249930904, "lon": 118.48069650972364, "alt_km": 21537.32002114707, "timestamp": "2025-12-15T07:02:37.881831+00:00", "meta": {"OBJECT_NAME": "BEIDOU-3 M21 (C43)", "OBJECT_ID": "2019-078B", "EPOCH": "2025-12-12T21:31:22.326816", "MEAN_MOTION": 1.86227454, "ECCENTRICITY": 0.00039343, "INCLINATION": 54.0813, "RA_OF_ASC_NODE": 306.3451, "ARG_OF_PERICENTER": 10.3646, "MEAN_ANOMALY": 349.6338, "EPHEMERIS_TYPE": 0, "CLASSIFICATION_TYPE": "U", "NORAD_CAT_ID": 44794, "ELEMENT_SET_NO": 999, "REV_AT_EPOCH": 4118, "BSTAR": 0, "MEAN_MOTION_DOT": -9.6e-07, "MEAN_MOTION_DDOT": 0}, "tle": {"line1": "1 44794U 19078B   25346.89678619 -.00000096  00000+0  00000+0 0  9991", "line2": "2 44794  54.0813 306.3451 0003934  10.3646 349.6338  1.86227454 41181"}}, "geometry": {"type": "Point", "coordinates": [118.48069650972364, 10.55768249930904]}}, {"type": "Feature", "properties": {"norad_id": 44864, "name": "BEIDOU-3 M19 (C41)", "group": "beidou", "lat": 2.3396316721661954, "lon": 70.43845763850625, "alt_km": 21517.253217515154, "timestamp": "2025-12-15T07:02:37.881842+00:00", "meta": {"OBJECT_NAME": "BEIDOU-3 M19 (C41)", "OBJECT_ID": "2019-090A", "EPOCH": "2025-12-10T23:47:39.658272", "MEAN_MOTION": 1.86231263, "ECCENTRICITY": 0.0017877, "INCLINATION": 56.392, "RA_OF_ASC_NODE": 69.0187, "ARG_OF_PERICENTER": 285.2046, "MEAN_ANOMALY": 73.1126, "EPHEMERIS_TYPE": 0, "CLASSIFICATION_TYPE": "U", "NORAD_CAT_ID": 44864, "ELEMENT_SET_NO": 999, "REV_AT_EPOCH": 4072, "BSTAR": 0, "MEAN_MOTION_DOT": -6e-07, "MEAN_MOTION_DDOT": 0}, "tle": {"line1": "1 44864U 19090A   25344.99143123 -.00000060  00000+0  00000+0 0  9990", "line2": "2 44864  56.3920  69.0187 0017877 285.2046  73.1126  1.86231263 40726"}}, "geometry": {"type": "Point", "coordinates": [70.43845763850625, 2.3396316721661954]}}, {"type": "Feature", "properties": {"norad_id": 44865, "name": "BEIDOU-3 M20 (C42)", "group": "beidou", "lat": 56.34767551417737, "lon": 163.1186416244845, "alt_km": 21558.93724560282, "timestamp": "2025-12-15T07:02:37.881852+00:00", "meta": {"OBJECT_NAME": "BEIDOU-3 M20 (C42)", "OBJECT_ID": "2019-090B", "EPOCH": "2025-12-10T20:36:05.507712", "MEAN_MOTION": 1.86231317, "ECCENTRICITY": 0.0014897, "INCLINATION": 56.3937, "RA_OF_ASC_NODE": 69.0576, "ARG_OF_PERICENTER": 298.003, "MEAN_ANOMALY": 60.7372, "EPHEMERIS_TYPE": 0, "CLASSIFICATION_TYPE": "U", "NORAD_CAT_ID": 44865, "ELEMENT_SET_NO": 999, "REV_AT_EPOCH": 4070, "BSTAR": 0, "MEAN_MOTION_DOT": -5.8e-07, "MEAN_MOTION_DDOT": 0}, "tle": {"line1": "1 44865U 19090B   25344.85839708 -.00000058  00000+0  00000+0 0  9994", "line2": "2 44865  56.3937  69.0576 0014897 298.0030  60.7372  1.86231317 40704"}}, "geometry": {"type": "Point", "coordinates": [163.1186416244845, 56.34767551417737]}}, {"type": "Feature", "properties": {"norad_id": 45344, "name": "BEIDOU-3 G2 (C60)", "group": "beidou", "lat": -1.817790087313553, "lon": -90.1692046396416, "alt_km": 35772.51436089426, "timestamp": "2025-12-15T07:02:37.881864+00:00", "meta": {"OBJECT_NAME": "BEIDOU-3 G2 (C60)", "OBJECT_ID": "2020-017A", "EPOCH": "2025-12-14T22:21:32.324832", "MEAN_MOTION": 1.00273108, "ECCENTRICITY": 0.00044173, "INCLINATION": 2.5013, "RA_OF_ASC_NODE": 43.9082, "ARG_OF_PERICENTER": 269.8635, "MEAN_ANOMALY": 185.4973, "EPHEMERIS_TYPE": 0, "CLASSIFICATION_TYPE": "U", "NORAD_CAT_ID": 45344, "ELEMENT_SET_NO": 999, "REV_AT_EPOCH": 2141, "BSTAR": 0, "MEAN_MOTION_DOT": -1.22e-06, "MEAN_MOTION_DDOT": 0}, "tle": {"line1": "1 45344U 20017A   25348.93162413 -.00000122  00000+0  00000+0 0  9995", "line2": "2 45344   2.5013  43.9082 0004417 269.8635 185.4973  1.00273108 21411"}}, "geometry": {"type": "Point", "coordinates": [-90.1692046396416, -1.817790087313553]}}, {"type": "Feature", "properties": {"norad_id": 45807, "name": "BEIDOU-3 G3 (C61)", "group": "beidou", "lat": -1.6260996707101787, "lon": -59.66497150366269, "alt_km": 35778.640692181485, "timestamp": "2025-12-15T07:02:37.881875+00:00", "meta": {"OBJECT_NAME": "BEIDOU-3 G3 (C61)", "OBJECT_ID": "2020-040A", "EPOCH": "2025-12-08T17:33:17.532288", "MEAN_MOTION": 1.00275813, "ECCENTRICITY": 0.00060306, "INCLINATION": 1.9816, "RA_OF_ASC_NODE": 66.5886, "ARG_OF_PERICENTER": 306.262, "MEAN_ANOMALY": 78.7159, "EPHEMERIS_TYPE": 0, "CLASSIFICATION_TYPE": "U", "NORAD_CAT_ID": 45807, "ELEMENT_SET_NO": 999, "REV_AT_EPOCH": 2016, "BSTAR": 0, "MEAN_MOTION_DOT": -3.52e-06, "MEAN_MOTION_DDOT": 0}, "tle": {"line1": "1 45807U 20040A   25342.73145292 -.00000352  00000+0  00000+0 0  9998", "line2": "2 45807   1.9816  66.5886 0006030 306.2620  78.7159  1.00275813 20161"}}, "geometry": {"type": "Point", "coordinates": [-59.66497150366269, -1.6260996707101787]}}, {"type": "Feature", "properties": {"norad_id": 56564, "name": "BEIDOU-3 G4 (C62)", "group": "beidou", "lat": 0.6051482302395665, "lon": -10.093545102750888, "alt_km": 35797.87801076576, "timestamp": "2025-12-15T07:02:37.881888+00:00", "meta": {"OBJECT_NAME": "BEIDOU-3 G4 (C62)", "OBJECT_ID": "2023-066A", "EPOCH": "2025-12-14T21:01:39.976032", "MEAN_MOTION": 1.00271754, "ECCENTRICITY": 0.00028272, "INCLINATION": 0.81, "RA_OF_ASC_NODE": 302.2267, "ARG_OF_PERICENTER": 229.6359, "MEAN_ANOMALY": 27.4061, "EPHEMERIS_TYPE": 0, "CLASSIFICATION_TYPE": "U", "NORAD_CAT_ID": 56564, "ELEMENT_SET_NO": 999, "REV_AT_EPOCH": 954, "BSTAR": 0, "MEAN_MOTION_DOT": -9.1e-07, "MEAN_MOTION_DDOT": 0}, "tle": {"line1": "1 56564U 23066A   25348.87615713 -.00000091  00000+0  00000+0 0  9992", "line2": "2 56564   0.8100 302.2267 0002827 229.6359  27.4061  1.00271754  9549"}}, "geometry": {"type": "Point", "coordinates": [-10.093545102750888, 0.6051482302395665]}}]}